{
  "type": "FeatureCollection",
  "features": [
    {
      "type": "Feature",
      "properties": {
        "norad_id": 30630,
        "name": "FENGYUN 1C DEB",
        "group": "fengyun-1c-debris",
        "lat": -39.06549315926488,
        "lon": 179.76158841337312,
        "alt_km": 820.515368454704,
        "timestamp": "2025-12-24T16:52:41.809751+00:00",
        "meta_object_name": "FENGYUN 1C DEB",
        "meta_object_id": "1999-025ANM",
        "meta_epoch": "2025-12-23T17:43:45.255936",
        "meta_mean_motion": 14.22414707,
        "meta_eccentricity": 0.00257414,
        "meta_inclination": 99.1734,
        "meta_ra_of_asc_node": 171.2217,
        "meta_arg_of_pericenter": 43.7578,
        "meta_mean_anomaly": 20.5723,
        "meta_ephemeris_type": 0,
        "meta_classification_type": "U",
        "meta_norad_cat_id": 30630,
        "meta_element_set_no": 999,
        "meta_rev_at_epoch": 97369,
        "meta_bstar": 0.0007273572,
        "meta_mean_motion_dot": 1.578e-05,
        "meta_mean_motion_ddot": 0,
        "tle_line1": "1 30630U 99025ANM 25357.73871824  .00001578  00000+0  72736-3 0  9997",
        "tle_line2": "2 30630  99.1734 171.2217 0025741  43.7578  20.5723 14.22414707973696"
      },
      "geometry": {
        "type": "Point",
        "coordinates": [
          179.76158841337312,
          -39.06549315926488
        ]
      }
    },
    {
      "type": "Feature",
      "properties": {
        "norad_id": 30632,
        "name": "FENGYUN 1C DEB",
        "group": "fengyun-1c-debris",
        "lat": 79.74204649513149,
        "lon": 10.0268178363027,
        "alt_km": 667.9731843154495,
        "timestamp": "2025-12-24T16:52:41.809762+00:00",
        "meta_object_name": "FENGYUN 1C DEB",
        "meta_object_id": "1999-025ANP",
        "meta_epoch": "2025-12-23T21:18:31.876416",
        "meta_mean_motion": 14.63113918,
        "meta_eccentricity": 0.0014012,
        "meta_inclination": 98.8254,
        "meta_ra_of_asc_node": 130.0066,
        "meta_arg_of_pericenter": 137.025,
        "meta_mean_anomaly": 345.9292,
        "meta_ephemeris_type": 0,
        "meta_classification_type": "U",
        "meta_norad_cat_id": 30632,
        "meta_element_set_no": 999,
        "meta_rev_at_epoch": 97854,
        "meta_bstar": 0.0034231,
        "meta_mean_motion_dot": 0.00017603,
        "meta_mean_motion_ddot": 0,
        "tle_line1": "1 30632U 99025ANP 25357.88786894  .00017603  00000+0  34231-2 0  9990",
        "tle_line2": "2 30632  98.8254 130.0066 0014012 137.0250 345.9292 14.63113918978548"
      },
      "geometry": {
        "type": "Point",
        "coordinates": [
          10.0268178363027,
          79.74204649513149
        ]
      }
    },
    {
      "type": "Feature",
      "properties": {
        "norad_id": 30633,
        "name": "FENGYUN 1C DEB",
        "group": "fengyun-1c-debris",
        "lat": -13.474469759654589,
        "lon": -135.1190586838192,
        "alt_km": 929.7999285074657,
        "timestamp": "2025-12-24T16:52:41.809772+00:00",
        "meta_object_name": "FENGYUN 1C DEB",
        "meta_object_id": "1999-025ANQ",
        "meta_epoch": "2025-12-24T02:17:37.896000",
        "meta_mean_motion": 14.04415433,
        "meta_eccentricity": 0.0130061,
        "meta_inclination": 98.4205,
        "meta_ra_of_asc_node": 222.2832,
        "meta_arg_of_pericenter": 227.8599,
        "meta_mean_anomaly": 286.6703,
        "meta_ephemeris_type": 0,
        "meta_classification_type": "U",
        "meta_norad_cat_id": 30633,
        "meta_element_set_no": 999,
        "meta_rev_at_epoch": 96051,
        "meta_bstar": 0.00082978265,
        "meta_mean_motion_dot": 1.385e-05,
        "meta_mean_motion_ddot": 0,
        "tle_line1": "1 30633U 99025ANQ 25358.09557750  .00001385  00000+0  82978-3 0  9994",
        "tle_line2": "2 30633  98.4205 222.2832 0130061 227.8599 286.6703 14.04415433960511"
      },
      "geometry": {
        "type": "Point",
        "coordinates": [
          -135.1190586838192,
          -13.474469759654589
        ]
      }
    },
    {
      "type": "Feature",
      "properties": {
        "norad_id": 30634,
        "name": "FENGYUN 1C DEB",
        "group": "fengyun-1c-debris",
        "lat": -41.71161120108713,
        "lon": 153.51446408523333,
        "alt_km": 948.2243738489769,
        "timestamp": "2025-12-24T16:52:41.809782+00:00",
        "meta_object_name": "FENGYUN 1C DEB",
        "meta_object_id": "1999-025ANR",
        "meta_epoch": "2025-12-23T23:05:49.346016",
        "meta_mean_motion": 14.09791021,
        "meta_eccentricity": 0.0121115,
        "meta_inclination": 99.2944,
        "meta_ra_of_asc_node": 341.1427,
        "meta_arg_of_pericenter": 65.4965,
        "meta_mean_anomaly": 358.181,
        "meta_ephemeris_type": 0,
        "meta_classification_type": "U",
        "meta_norad_cat_id": 30634,
        "meta_element_set_no": 999,
        "meta_rev_at_epoch": 95775,
        "meta_bstar": 0.0023294,
        "meta_mean_motion_dot": 4.337e-05,
        "meta_mean_motion_ddot": 0,
        "tle_line1": "1 30634U 99025ANR 25357.96237669  .00004337  00000+0  23294-2 0  9999",
        "tle_line2": "2 30634  99.2944 341.1427 0121115  65.4965 358.1810 14.09791021957756"
      },
      "geometry": {
        "type": "Point",
        "coordinates": [
          153.51446408523333,
          -41.71161120108713
        ]
      }
    },
    {
      "type": "Feature",
      "properties": {
        "norad_id": 30639,
        "name": "FENGYUN 1C DEB",
        "group": "fengyun-1c-debris",
        "lat": 36.79275575871411,
        "lon": -62.00977921435701,
        "alt_km": 792.4398115200174,
        "timestamp": "2025-12-24T16:52:41.809793+00:00",
        "meta_object_name": "FENGYUN 1C DEB",
        "meta_object_id": "1999-025ANW",
        "meta_epoch": "2025-12-24T02:47:50.295840",
        "meta_mean_motion": 14.32503559,
        "meta_eccentricity": 0.0068682,
        "meta_inclination": 99.0185,
        "meta_ra_of_asc_node": 110.5585,
        "meta_arg_of_pericenter": 248.4998,
        "meta_mean_anomaly": 110.8853,
        "meta_ephemeris_type": 0,
        "meta_classification_type": "U",
        "meta_norad_cat_id": 30639,
        "meta_element_set_no": 999,
        "meta_rev_at_epoch": 96882,
        "meta_bstar": 0.0031264975,
        "meta_mean_motion_dot": 8.66e-05,
        "meta_mean_motion_ddot": 0,
        "tle_line1": "1 30639U 99025ANW 25358.11655435  .00008660  00000+0  31265-2 0  9997",
        "tle_line2": "2 30639  99.0185 110.5585 0068682 248.4998 110.8853 14.32503559968820"
      },
      "geometry": {
        "type": "Point",
        "coordinates": [
          -62.00977921435701,
          36.79275575871411
        ]
      }
    },
    {
      "type": "Feature",
      "properties": {
        "norad_id": 30640,
        "name": "FENGYUN 1C DEB",
        "group": "fengyun-1c-debris",
        "lat": -54.443568592171125,
        "lon": -122.81122060440548,
        "alt_km": 906.9789265727222,
        "timestamp": "2025-12-24T16:52:41.809803+00:00",
        "meta_object_name": "FENGYUN 1C DEB",
        "meta_object_id": "1999-025ANX",
        "meta_epoch": "2025-12-24T04:01:45.988896",
        "meta_mean_motion": 14.14688697,
        "meta_eccentricity": 0.00800552,
        "meta_inclination": 99.056,
        "meta_ra_of_asc_node": 69.5387,
        "meta_arg_of_pericenter": 68.3893,
        "meta_mean_anomaly": 321.7691,
        "meta_ephemeris_type": 0,
        "meta_classification_type": "U",
        "meta_norad_cat_id": 30640,
        "meta_element_set_no": 999,
        "meta_rev_at_epoch": 96607,
        "meta_bstar": 0.0012901445,
        "meta_mean_motion_dot": 2.516e-05,
        "meta_mean_motion_ddot": 0,
        "tle_line1": "1 30640U 99025ANX 25358.16789339  .00002516  00000+0  12901-2 0  9995",
        "tle_line2": "2 30640  99.0560  69.5387 0080055  68.3893 321.7691 14.14688697966078"
      },
      "geometry": {
        "type": "Point",
        "coordinates": [
          -122.81122060440548,
          -54.443568592171125
        ]
      }
    },
    {
      "type": "Feature",
      "properties": {
        "norad_id": 30641,
        "name": "FENGYUN 1C DEB",
        "group": "fengyun-1c-debris",
        "lat": 68.44418717119856,
        "lon": -89.08510062725863,
        "alt_km": 534.9928632941455,
        "timestamp": "2025-12-24T16:52:41.809813+00:00",
        "meta_object_name": "FENGYUN 1C DEB",
        "meta_object_id": "1999-025ANY",
        "meta_epoch": "2025-12-23T07:08:45.530016",
        "meta_mean_motion": 14.79042821,
        "meta_eccentricity": 0.01364038,
        "meta_inclination": 98.9438,
        "meta_ra_of_asc_node": 292.8473,
        "meta_arg_of_pericenter": 93.6354,
        "meta_mean_anomaly": 57.8723,
        "meta_ephemeris_type": 0,
        "meta_classification_type": "U",
        "meta_norad_cat_id": 30641,
        "meta_element_set_no": 999,
        "meta_rev_at_epoch": 688,
        "meta_bstar": 0.0005546336,
        "meta_mean_motion_dot": 4.73e-05,
        "meta_mean_motion_ddot": 0,
        "tle_line1": "1 30641U 99025ANY 25357.29774919  .00004730  00000+0  55463-3 0  9998",
        "tle_line2": "2 30641  98.9438 292.8473 0136403  93.6354  57.8723 14.79042821  6881"
      },
      "geometry": {
        "type": "Point",
        "coordinates": [
          -89.08510062725863,
          68.44418717119856
        ]
      }
    }
  ]
}